IXPE                    
1 49954U 21121A   24220.08334491  .00008991  00000+0  65599-3 0  9993
2 49954   0.2321  15.4779 0009420 315.6307   8.9284 14.98910506145547
